<?xml version="1.0" encoding="UTF-8"?>
<ndm xmlns:xsi="http://www.w3.org/2001/XMLSchema-instance" xsi:noNamespaceSchemaLocation="https://sanaregistry.org/r/ndmxml_unqualified/ndmxml-2.0.0-master-2.0.xsd">
<omm id="CCSDS_OMM_VERS" version="2.0">
<header><CREATION_DATE/><ORIGINATOR/></header><body><segment><metadata><OBJECT_NAME>KUIPER-00152</OBJECT_NAME><OBJECT_ID>2025-217L</OBJECT_ID><CENTER_NAME>EARTH</CENTER_NAME><REF_FRAME>TEME</REF_FRAME><TIME_SYSTEM>UTC</TIME_SYSTEM><MEAN_ELEMENT_THEORY>SGP4</MEAN_ELEMENT_THEORY></metadata><data><meanElements><EPOCH>2025-10-09T22:00:00.999936</EPOCH><MEAN_MOTION>15.36937468</MEAN_MOTION><ECCENTRICITY>.00022169</ECCENTRICITY><INCLINATION>51.8741</INCLINATION><RA_OF_ASC_NODE>12.7865</RA_OF_ASC_NODE><ARG_OF_PERICENTER>67.4094</ARG_OF_PERICENTER><MEAN_ANOMALY>152.9486</MEAN_ANOMALY></meanElements><tleParameters><EPHEMERIS_TYPE>0</EPHEMERIS_TYPE><CLASSIFICATION_TYPE>U</CLASSIFICATION_TYPE><NORAD_CAT_ID>65772</NORAD_CAT_ID><ELEMENT_SET_NO>999</ELEMENT_SET_NO><REV_AT_EPOCH>310</REV_AT_EPOCH><BSTAR>-.28748554E-3</BSTAR><MEAN_MOTION_DOT>-.10921E-3</MEAN_MOTION_DOT><MEAN_MOTION_DDOT>0</MEAN_MOTION_DDOT></tleParameters></data></segment></body></omm>
<omm id="CCSDS_OMM_VERS" version="2.0">
<header><CREATION_DATE/><ORIGINATOR/></header><body><segment><metadata><OBJECT_NAME>KUIPER-00153</OBJECT_NAME><OBJECT_ID>2025-217M</OBJECT_ID><CENTER_NAME>EARTH</CENTER_NAME><REF_FRAME>TEME</REF_FRAME><TIME_SYSTEM>UTC</TIME_SYSTEM><MEAN_ELEMENT_THEORY>SGP4</MEAN_ELEMENT_THEORY></metadata><data><meanElements><EPOCH>2025-10-09T22:00:00.999936</EPOCH><MEAN_MOTION>15.34717859</MEAN_MOTION><ECCENTRICITY>.00086885</ECCENTRICITY><INCLINATION>51.8650</INCLINATION><RA_OF_ASC_NODE>13.0240</RA_OF_ASC_NODE><ARG_OF_PERICENTER>156.1524</ARG_OF_PERICENTER><MEAN_ANOMALY>310.7081</MEAN_ANOMALY></meanElements><tleParameters><EPHEMERIS_TYPE>0</EPHEMERIS_TYPE><CLASSIFICATION_TYPE>U</CLASSIFICATION_TYPE><NORAD_CAT_ID>65773</NORAD_CAT_ID><ELEMENT_SET_NO>999</ELEMENT_SET_NO><REV_AT_EPOCH>322</REV_AT_EPOCH><BSTAR>-.2288597E-3</BSTAR><MEAN_MOTION_DOT>-.8204E-4</MEAN_MOTION_DOT><MEAN_MOTION_DDOT>0</MEAN_MOTION_DDOT></tleParameters></data></segment></body></omm>
<omm id="CCSDS_OMM_VERS" version="2.0">
<header><CREATION_DATE/><ORIGINATOR/></header><body><segment><metadata><OBJECT_NAME>KUIPER-00155</OBJECT_NAME><OBJECT_ID>2025-217N</OBJECT_ID><CENTER_NAME>EARTH</CENTER_NAME><REF_FRAME>TEME</REF_FRAME><TIME_SYSTEM>UTC</TIME_SYSTEM><MEAN_ELEMENT_THEORY>SGP4</MEAN_ELEMENT_THEORY></metadata><data><meanElements><EPOCH>2025-10-09T22:00:00.999936</EPOCH><MEAN_MOTION>15.35470874</MEAN_MOTION><ECCENTRICITY>.00057238</ECCENTRICITY><INCLINATION>51.8677</INCLINATION><RA_OF_ASC_NODE>12.9478</RA_OF_ASC_NODE><ARG_OF_PERICENTER>144.8556</ARG_OF_PERICENTER><MEAN_ANOMALY>0.3897</MEAN_ANOMALY></meanElements><tleParameters><EPHEMERIS_TYPE>0</EPHEMERIS_TYPE><CLASSIFICATION_TYPE>U</CLASSIFICATION_TYPE><NORAD_CAT_ID>65774</NORAD_CAT_ID><ELEMENT_SET_NO>999</ELEMENT_SET_NO><REV_AT_EPOCH>180</REV_AT_EPOCH><BSTAR>-.1748672E-3</BSTAR><MEAN_MOTION_DOT>-.6503E-4</MEAN_MOTION_DOT><MEAN_MOTION_DDOT>0</MEAN_MOTION_DDOT></tleParameters></data></segment></body></omm>
<omm id="CCSDS_OMM_VERS" version="2.0">
<header><CREATION_DATE/><ORIGINATOR/></header><body><segment><metadata><OBJECT_NAME>KUIPER-00156</OBJECT_NAME><OBJECT_ID>2025-217P</OBJECT_ID><CENTER_NAME>EARTH</CENTER_NAME><REF_FRAME>TEME</REF_FRAME><TIME_SYSTEM>UTC</TIME_SYSTEM><MEAN_ELEMENT_THEORY>SGP4</MEAN_ELEMENT_THEORY></metadata><data><meanElements><EPOCH>2025-10-09T22:00:00.999936</EPOCH><MEAN_MOTION>15.36627900</MEAN_MOTION><ECCENTRICITY>.0002607</ECCENTRICITY><INCLINATION>51.8739</INCLINATION><RA_OF_ASC_NODE>12.8218</RA_OF_ASC_NODE><ARG_OF_PERICENTER>92.9320</ARG_OF_PERICENTER><MEAN_ANOMALY>111.6117</MEAN_ANOMALY></meanElements><tleParameters><EPHEMERIS_TYPE>0</EPHEMERIS_TYPE><CLASSIFICATION_TYPE>U</CLASSIFICATION_TYPE><NORAD_CAT_ID>65775</NORAD_CAT_ID><ELEMENT_SET_NO>999</ELEMENT_SET_NO><REV_AT_EPOCH>310</REV_AT_EPOCH><BSTAR>-.26783191E-3</BSTAR><MEAN_MOTION_DOT>-.10104E-3</MEAN_MOTION_DOT><MEAN_MOTION_DDOT>0</MEAN_MOTION_DDOT></tleParameters></data></segment></body></omm>
<omm id="CCSDS_OMM_VERS" version="2.0">
<header><CREATION_DATE/><ORIGINATOR/></header><body><segment><metadata><OBJECT_NAME>KUIPER-00158</OBJECT_NAME><OBJECT_ID>2025-217Q</OBJECT_ID><CENTER_NAME>EARTH</CENTER_NAME><REF_FRAME>TEME</REF_FRAME><TIME_SYSTEM>UTC</TIME_SYSTEM><MEAN_ELEMENT_THEORY>SGP4</MEAN_ELEMENT_THEORY></metadata><data><meanElements><EPOCH>2025-10-09T22:00:00.999936</EPOCH><MEAN_MOTION>15.35697311</MEAN_MOTION><ECCENTRICITY>.00053616</ECCENTRICITY><INCLINATION>51.8714</INCLINATION><RA_OF_ASC_NODE>12.9251</RA_OF_ASC_NODE><ARG_OF_PERICENTER>139.9296</ARG_OF_PERICENTER><MEAN_ANOMALY>16.4427</MEAN_ANOMALY></meanElements><tleParameters><EPHEMERIS_TYPE>0</EPHEMERIS_TYPE><CLASSIFICATION_TYPE>U</CLASSIFICATION_TYPE><NORAD_CAT_ID>65776</NORAD_CAT_ID><ELEMENT_SET_NO>999</ELEMENT_SET_NO><REV_AT_EPOCH>130</REV_AT_EPOCH><BSTAR>-.21120862E-3</BSTAR><MEAN_MOTION_DOT>-.7827E-4</MEAN_MOTION_DOT><MEAN_MOTION_DDOT>0</MEAN_MOTION_DDOT></tleParameters></data></segment></body></omm>
<omm id="CCSDS_OMM_VERS" version="2.0">
<header><CREATION_DATE/><ORIGINATOR/></header><body><segment><metadata><OBJECT_NAME>KUIPER-00163</OBJECT_NAME><OBJECT_ID>2025-217R</OBJECT_ID><CENTER_NAME>EARTH</CENTER_NAME><REF_FRAME>TEME</REF_FRAME><TIME_SYSTEM>UTC</TIME_SYSTEM><MEAN_ELEMENT_THEORY>SGP4</MEAN_ELEMENT_THEORY></metadata><data><meanElements><EPOCH>2025-10-09T22:00:00.999936</EPOCH><MEAN_MOTION>15.34875221</MEAN_MOTION><ECCENTRICITY>.00081858</ECCENTRICITY><INCLINATION>51.8637</INCLINATION><RA_OF_ASC_NODE>13.0088</RA_OF_ASC_NODE><ARG_OF_PERICENTER>157.1341</ARG_OF_PERICENTER><MEAN_ANOMALY>316.8033</MEAN_ANOMALY></meanElements><tleParameters><EPHEMERIS_TYPE>0</EPHEMERIS_TYPE><CLASSIFICATION_TYPE>U</CLASSIFICATION_TYPE><NORAD_CAT_ID>65777</NORAD_CAT_ID><ELEMENT_SET_NO>999</ELEMENT_SET_NO><REV_AT_EPOCH>333</REV_AT_EPOCH><BSTAR>-.23543091E-3</BSTAR><MEAN_MOTION_DOT>-.8468E-4</MEAN_MOTION_DOT><MEAN_MOTION_DDOT>0</MEAN_MOTION_DDOT></tleParameters></data></segment></body></omm>
<omm id="CCSDS_OMM_VERS" version="2.0">
<header><CREATION_DATE/><ORIGINATOR/></header><body><segment><metadata><OBJECT_NAME>KUIPER-00165</OBJECT_NAME><OBJECT_ID>2025-217S</OBJECT_ID><CENTER_NAME>EARTH</CENTER_NAME><REF_FRAME>TEME</REF_FRAME><TIME_SYSTEM>UTC</TIME_SYSTEM><MEAN_ELEMENT_THEORY>SGP4</MEAN_ELEMENT_THEORY></metadata><data><meanElements><EPOCH>2025-10-09T22:00:00.999936</EPOCH><MEAN_MOTION>15.36111232</MEAN_MOTION><ECCENTRICITY>.00043163</ECCENTRICITY><INCLINATION>51.8718</INCLINATION><RA_OF_ASC_NODE>12.8806</RA_OF_ASC_NODE><ARG_OF_PERICENTER>118.4582</ARG_OF_PERICENTER><MEAN_ANOMALY>59.6012</MEAN_ANOMALY></meanElements><tleParameters><EPHEMERIS_TYPE>0</EPHEMERIS_TYPE><CLASSIFICATION_TYPE>U</CLASSIFICATION_TYPE><NORAD_CAT_ID>65778</NORAD_CAT_ID><ELEMENT_SET_NO>999</ELEMENT_SET_NO><REV_AT_EPOCH>310</REV_AT_EPOCH><BSTAR>-.22075057E-3</BSTAR><MEAN_MOTION_DOT>-.8266E-4</MEAN_MOTION_DOT><MEAN_MOTION_DDOT>0</MEAN_MOTION_DDOT></tleParameters></data></segment></body></omm>
<omm id="CCSDS_OMM_VERS" version="2.0">
<header><CREATION_DATE/><ORIGINATOR/></header><body><segment><metadata><OBJECT_NAME>KUIPER-00166</OBJECT_NAME><OBJECT_ID>2025-217T</OBJECT_ID><CENTER_NAME>EARTH</CENTER_NAME><REF_FRAME>TEME</REF_FRAME><TIME_SYSTEM>UTC</TIME_SYSTEM><MEAN_ELEMENT_THEORY>SGP4</MEAN_ELEMENT_THEORY></metadata><data><meanElements><EPOCH>2025-10-09T22:00:00.999936</EPOCH><MEAN_MOTION>15.36421544</MEAN_MOTION><ECCENTRICITY>.00034782</ECCENTRICITY><INCLINATION>51.8730</INCLINATION><RA_OF_ASC_NODE>12.8473</RA_OF_ASC_NODE><ARG_OF_PERICENTER>101.0647</ARG_OF_PERICENTER><MEAN_ANOMALY>92.7621</MEAN_ANOMALY></meanElements><tleParameters><EPHEMERIS_TYPE>0</EPHEMERIS_TYPE><CLASSIFICATION_TYPE>U</CLASSIFICATION_TYPE><NORAD_CAT_ID>65779</NORAD_CAT_ID><ELEMENT_SET_NO>999</ELEMENT_SET_NO><REV_AT_EPOCH>340</REV_AT_EPOCH><BSTAR>-.25272674E-3</BSTAR><MEAN_MOTION_DOT>-.9496E-4</MEAN_MOTION_DOT><MEAN_MOTION_DDOT>0</MEAN_MOTION_DDOT></tleParameters></data></segment></body></omm>

</ndm>
