KUIPER-00152            
1 65772U 25217L   25282.91667824 -.00010921  00000+0 -28749-3 0  9993
2 65772  51.8741  12.7865 0002216  67.4094 152.9486 15.36937468  3106
KUIPER-00153            
1 65773U 25217M   25282.91667824 -.00008204  00000+0 -22886-3 0  9991
2 65773  51.8650  13.0240 0008688 156.1524 310.7081 15.34717859  3226
KUIPER-00155            
1 65774U 25217N   25282.91667824 -.00006503  00000+0 -17487-3 0  9993
2 65774  51.8677  12.9478 0005723 144.8556   0.3897 15.35470874  1806
KUIPER-00156            
1 65775U 25217P   25282.91667824 -.00010104  00000+0 -26783-3 0  9995
2 65775  51.8739  12.8218 0002607  92.9320 111.6117 15.36627900  3108
KUIPER-00158            
1 65776U 25217Q   25282.91667824 -.00007827  00000+0 -21121-3 0  9995
2 65776  51.8714  12.9251 0005361 139.9296  16.4427 15.35697311  1302
KUIPER-00163            
1 65777U 25217R   25282.91667824 -.00008468  00000+0 -23543-3 0  9998
2 65777  51.8637  13.0088 0008185 157.1341 316.8033 15.34875221  3339
KUIPER-00165            
1 65778U 25217S   25282.91667824 -.00008266  00000+0 -22075-3 0  9994
2 65778  51.8718  12.8806 0004316 118.4582  59.6012 15.36111232  3105
KUIPER-00166            
1 65779U 25217T   25282.91667824 -.00009496  00000+0 -25273-3 0  9994
2 65779  51.8730  12.8473 0003478 101.0647  92.7621 15.36421544  3405
